APRIZESAT 2             
1 28366U 04025A   26093.41650926  .00000456  00000+0  15408-3 0  9994
2 28366  98.0946 263.6557 0106785 115.5722 245.6550 14.38007598140891
SAUDICOMSAT 1           
1 28369U 04025D   26093.90608198  .00000694  00000+0  17015-3 0  9995
2 28369  98.5804 102.0265 0031002 250.3883 109.3966 14.55417563153324
SAUDICOMSAT 2           
1 28370U 04025E   26094.01116053  .00000589  00000+0  16180-3 0  9999
2 28370  98.6678 104.1518 0056547 123.5550 237.1061 14.49932132149354
APRIZESAT 1             
1 28372U 04025G   26093.99666627  .00000582  00000+0  15519-3 0  9992
2 28372  98.6338 102.6925 0045020  22.2903 338.0235 14.51737369151147
NANOSAT-1               
1 28493U 04049B   26094.27726179  .00002484  00000+0  33554-3 0  9995
2 28493  98.2150 229.1874 0004499 155.0977 205.0452 14.80006079144514
SAUDICOMSAT 7           
1 31119U 07012C   26093.85669107  .00001408  00000+0  26021-3 0  9993
2 31119  98.3722  66.4975 0057032  69.8531 290.8794 14.66017745 11545
SAUDICOMSAT 6           
1 31121U 07012E   26093.85889732  .00000936  00000+0  18834-3 0  9992
2 31121  98.4033  60.0296 0071416 197.2869 162.5899 14.62470272  9320
SAUDICOMSAT 5           
1 31124U 07012H   26093.66067414  .00001660  00000+0  29369-3 0  9999
2 31124  98.3433  67.0591 0047549   1.7917 358.3449 14.68062026 12661
SAUDICOMSAT 3           
1 31125U 07012J   26093.88560944  .00001697  00000+0  28493-3 0  9997
2 31125  98.3090  67.8462 0037921 287.6943  72.0124 14.70593179 13902
SAUDICOMSAT 4           
1 31127U 07012L   26093.88584559  .00001138  00000+0  21850-3 0  9997
2 31127  98.3924  64.9754 0064431 129.7807 230.9093 14.64418069 10413
APRIZESAT 4             
1 35684U 09041D   26094.14663206  .00001555  00000+0  19193-3 0  9990
2 35684  98.1446 167.9887 0042935 200.1027 159.8497 14.83765167900382
APRIZESAT 3             
1 35686U 09041F   26093.92794752  .00002583  00000+0  22777-3 0  9992
2 35686  98.1947 243.6492 0061167 312.9965  46.6138 14.95996298905277
S-NET D                 
1 43186U 18014G   26094.22186502  .00010890  00000+0  57012-3 0  9998
2 43186  97.5415 359.4944 0006611 276.6081  83.4399 15.15980361447557
S-NET B                 
1 43187U 18014H   26094.23188357  .00010335  00000+0  54166-3 0  9991
2 43187  97.5420 359.4886 0007218 270.6274  89.4132 15.15951688447552
S-NET A                 
1 43188U 18014J   26094.28709624  .00011012  00000+0  57626-3 0  9990
2 43188  97.5430 359.7386 0007125 271.4498  88.5919 15.15988881447565
S-NET C                 
1 43189U 18014K   26094.23535067  .00010182  00000+0  53370-3 0  9993
2 43189  97.5446 359.7505 0008482 262.4820  97.5449 15.15944408446106
