[{"OBJECT_NAME":"APRIZESAT 2","OBJECT_ID":"2004-025A","EPOCH":"2026-04-03T09:59:46.400064","MEAN_MOTION":14.38007598,"ECCENTRICITY":0.01067859,"INCLINATION":98.0946,"RA_OF_ASC_NODE":263.6557,"ARG_OF_PERICENTER":115.5722,"MEAN_ANOMALY":245.655,"EPHEMERIS_TYPE":0,"CLASSIFICATION_TYPE":"U","NORAD_CAT_ID":28366,"ELEMENT_SET_NO":999,"REV_AT_EPOCH":14089,"BSTAR":0.00015408292,"MEAN_MOTION_DOT":4.56e-6,"MEAN_MOTION_DDOT":0},{"OBJECT_NAME":"SAUDICOMSAT 1","OBJECT_ID":"2004-025D","EPOCH":"2026-04-03T21:44:45.483072","MEAN_MOTION":14.55417563,"ECCENTRICITY":0.00310023,"INCLINATION":98.5804,"RA_OF_ASC_NODE":102.0265,"ARG_OF_PERICENTER":250.3883,"MEAN_ANOMALY":109.3966,"EPHEMERIS_TYPE":0,"CLASSIFICATION_TYPE":"U","NORAD_CAT_ID":28369,"ELEMENT_SET_NO":999,"REV_AT_EPOCH":15332,"BSTAR":0.00017014954,"MEAN_MOTION_DOT":6.94e-6,"MEAN_MOTION_DDOT":0},{"OBJECT_NAME":"SAUDICOMSAT 2","OBJECT_ID":"2004-025E","EPOCH":"2026-04-04T00:16:04.269792","MEAN_MOTION":14.49932132,"ECCENTRICITY":0.00565474,"INCLINATION":98.6678,"RA_OF_ASC_NODE":104.1518,"ARG_OF_PERICENTER":123.555,"MEAN_ANOMALY":237.1061,"EPHEMERIS_TYPE":0,"CLASSIFICATION_TYPE":"U","NORAD_CAT_ID":28370,"ELEMENT_SET_NO":999,"REV_AT_EPOCH":14935,"BSTAR":0.00016179843,"MEAN_MOTION_DOT":5.89e-6,"MEAN_MOTION_DDOT":0},{"OBJECT_NAME":"APRIZESAT 1","OBJECT_ID":"2004-025G","EPOCH":"2026-04-03T23:55:11.965728","MEAN_MOTION":14.51737369,"ECCENTRICITY":0.00450202,"INCLINATION":98.6338,"RA_OF_ASC_NODE":102.6925,"ARG_OF_PERICENTER":22.2903,"MEAN_ANOMALY":338.0235,"EPHEMERIS_TYPE":0,"CLASSIFICATION_TYPE":"U","NORAD_CAT_ID":28372,"ELEMENT_SET_NO":999,"REV_AT_EPOCH":15114,"BSTAR":0.00015518639,"MEAN_MOTION_DOT":5.82e-6,"MEAN_MOTION_DDOT":0},{"OBJECT_NAME":"NANOSAT-1","OBJECT_ID":"2004-049B","EPOCH":"2026-04-04T06:39:15.418656","MEAN_MOTION":14.80006079,"ECCENTRICITY":0.0004499,"INCLINATION":98.215,"RA_OF_ASC_NODE":229.1874,"ARG_OF_PERICENTER":155.0977,"MEAN_ANOMALY":205.0452,"EPHEMERIS_TYPE":0,"CLASSIFICATION_TYPE":"U","NORAD_CAT_ID":28493,"ELEMENT_SET_NO":999,"REV_AT_EPOCH":14451,"BSTAR":0.00033554386,"MEAN_MOTION_DOT":2.484e-5,"MEAN_MOTION_DDOT":0},{"OBJECT_NAME":"SAUDICOMSAT 7","OBJECT_ID":"2007-012C","EPOCH":"2026-04-03T20:33:38.108448","MEAN_MOTION":14.66017745,"ECCENTRICITY":0.00570322,"INCLINATION":98.3722,"RA_OF_ASC_NODE":66.4975,"ARG_OF_PERICENTER":69.8531,"MEAN_ANOMALY":290.8794,"EPHEMERIS_TYPE":0,"CLASSIFICATION_TYPE":"U","NORAD_CAT_ID":31119,"ELEMENT_SET_NO":999,"REV_AT_EPOCH":1154,"BSTAR":0.0002602051,"MEAN_MOTION_DOT":1.408e-5,"MEAN_MOTION_DDOT":0},{"OBJECT_NAME":"SAUDICOMSAT 6","OBJECT_ID":"2007-012E","EPOCH":"2026-04-03T20:36:48.728448","MEAN_MOTION":14.62470272,"ECCENTRICITY":0.00714163,"INCLINATION":98.4033,"RA_OF_ASC_NODE":60.0296,"ARG_OF_PERICENTER":197.2869,"MEAN_ANOMALY":162.5899,"EPHEMERIS_TYPE":0,"CLASSIFICATION_TYPE":"U","NORAD_CAT_ID":31121,"ELEMENT_SET_NO":999,"REV_AT_EPOCH":932,"BSTAR":0.00018834004,"MEAN_MOTION_DOT":9.36e-6,"MEAN_MOTION_DDOT":0},{"OBJECT_NAME":"SAUDICOMSAT 5","OBJECT_ID":"2007-012H","EPOCH":"2026-04-03T15:51:22.245696","MEAN_MOTION":14.68062026,"ECCENTRICITY":0.00475499,"INCLINATION":98.3433,"RA_OF_ASC_NODE":67.0591,"ARG_OF_PERICENTER":1.7917,"MEAN_ANOMALY":358.3449,"EPHEMERIS_TYPE":0,"CLASSIFICATION_TYPE":"U","NORAD_CAT_ID":31124,"ELEMENT_SET_NO":999,"REV_AT_EPOCH":1266,"BSTAR":0.00029368638,"MEAN_MOTION_DOT":1.66e-5,"MEAN_MOTION_DDOT":0},{"OBJECT_NAME":"SAUDICOMSAT 3","OBJECT_ID":"2007-012J","EPOCH":"2026-04-03T21:15:16.655616","MEAN_MOTION":14.70593179,"ECCENTRICITY":0.00379216,"INCLINATION":98.309,"RA_OF_ASC_NODE":67.8462,"ARG_OF_PERICENTER":287.6943,"MEAN_ANOMALY":72.0124,"EPHEMERIS_TYPE":0,"CLASSIFICATION_TYPE":"U","NORAD_CAT_ID":31125,"ELEMENT_SET_NO":999,"REV_AT_EPOCH":1390,"BSTAR":0.00028493034,"MEAN_MOTION_DOT":1.697e-5,"MEAN_MOTION_DDOT":0},{"OBJECT_NAME":"SAUDICOMSAT 4","OBJECT_ID":"2007-012L","EPOCH":"2026-04-03T21:15:37.058976","MEAN_MOTION":14.64418069,"ECCENTRICITY":0.00644311,"INCLINATION":98.3924,"RA_OF_ASC_NODE":64.9754,"ARG_OF_PERICENTER":129.7807,"MEAN_ANOMALY":230.9093,"EPHEMERIS_TYPE":0,"CLASSIFICATION_TYPE":"U","NORAD_CAT_ID":31127,"ELEMENT_SET_NO":999,"REV_AT_EPOCH":1041,"BSTAR":0.00021850201,"MEAN_MOTION_DOT":1.138e-5,"MEAN_MOTION_DDOT":0},{"OBJECT_NAME":"APRIZESAT 4","OBJECT_ID":"2009-041D","EPOCH":"2026-04-04T03:31:09.009984","MEAN_MOTION":14.83765167,"ECCENTRICITY":0.00429352,"INCLINATION":98.1446,"RA_OF_ASC_NODE":167.9887,"ARG_OF_PERICENTER":200.1027,"MEAN_ANOMALY":159.8497,"EPHEMERIS_TYPE":0,"CLASSIFICATION_TYPE":"U","NORAD_CAT_ID":35684,"ELEMENT_SET_NO":999,"REV_AT_EPOCH":90038,"BSTAR":0.00019193195,"MEAN_MOTION_DOT":1.555e-5,"MEAN_MOTION_DDOT":0},{"OBJECT_NAME":"APRIZESAT 3","OBJECT_ID":"2009-041F","EPOCH":"2026-04-03T22:16:14.665728","MEAN_MOTION":14.95996298,"ECCENTRICITY":0.00611676,"INCLINATION":98.1947,"RA_OF_ASC_NODE":243.6492,"ARG_OF_PERICENTER":312.9965,"MEAN_ANOMALY":46.6138,"EPHEMERIS_TYPE":0,"CLASSIFICATION_TYPE":"U","NORAD_CAT_ID":35686,"ELEMENT_SET_NO":999,"REV_AT_EPOCH":90527,"BSTAR":0.00022776957,"MEAN_MOTION_DOT":2.583e-5,"MEAN_MOTION_DDOT":0},{"OBJECT_NAME":"S-NET D","OBJECT_ID":"2018-014G","EPOCH":"2026-04-04T05:19:29.137728","MEAN_MOTION":15.15980361,"ECCENTRICITY":0.00066113,"INCLINATION":97.5415,"RA_OF_ASC_NODE":359.4944,"ARG_OF_PERICENTER":276.6081,"MEAN_ANOMALY":83.4399,"EPHEMERIS_TYPE":0,"CLASSIFICATION_TYPE":"U","NORAD_CAT_ID":43186,"ELEMENT_SET_NO":999,"REV_AT_EPOCH":44755,"BSTAR":0.00057012326,"MEAN_MOTION_DOT":0.0001089,"MEAN_MOTION_DDOT":0},{"OBJECT_NAME":"S-NET B","OBJECT_ID":"2018-014H","EPOCH":"2026-04-04T05:33:54.740448","MEAN_MOTION":15.15951688,"ECCENTRICITY":0.0007218,"INCLINATION":97.542,"RA_OF_ASC_NODE":359.4886,"ARG_OF_PERICENTER":270.6274,"MEAN_ANOMALY":89.4132,"EPHEMERIS_TYPE":0,"CLASSIFICATION_TYPE":"U","NORAD_CAT_ID":43187,"ELEMENT_SET_NO":999,"REV_AT_EPOCH":44755,"BSTAR":0.00054165635,"MEAN_MOTION_DOT":0.00010335,"MEAN_MOTION_DDOT":0},{"OBJECT_NAME":"S-NET A","OBJECT_ID":"2018-014J","EPOCH":"2026-04-04T06:53:25.115136","MEAN_MOTION":15.15988881,"ECCENTRICITY":0.00071256,"INCLINATION":97.543,"RA_OF_ASC_NODE":359.7386,"ARG_OF_PERICENTER":271.4498,"MEAN_ANOMALY":88.5919,"EPHEMERIS_TYPE":0,"CLASSIFICATION_TYPE":"U","NORAD_CAT_ID":43188,"ELEMENT_SET_NO":999,"REV_AT_EPOCH":44756,"BSTAR":0.00057625666,"MEAN_MOTION_DOT":0.00011012,"MEAN_MOTION_DDOT":0},{"OBJECT_NAME":"S-NET C","OBJECT_ID":"2018-014K","EPOCH":"2026-04-04T05:38:54.297888","MEAN_MOTION":15.15944408,"ECCENTRICITY":0.00084827,"INCLINATION":97.5446,"RA_OF_ASC_NODE":359.7505,"ARG_OF_PERICENTER":262.482,"MEAN_ANOMALY":97.5449,"EPHEMERIS_TYPE":0,"CLASSIFICATION_TYPE":"U","NORAD_CAT_ID":43189,"ELEMENT_SET_NO":999,"REV_AT_EPOCH":44610,"BSTAR":0.00053369623,"MEAN_MOTION_DOT":0.00010182,"MEAN_MOTION_DDOT":0}]
